start=new Date('2023-02-01T00:00:00.000Z').valueOf();
sats=[{"OBJECT_TYPE":"PAYLOAD","CENTER_NAME":"EARTH","OBJECT_ID":"2022-114AE","LAUNCH_DATE":"2022-09-19","ARG_OF_PERICENTER":"103.2008","COUNTRY_CODE":"US","RA_OF_ASC_NODE":"339.4556","INCLINATION":"53.2172","ECCENTRICITY":"0.00011440","DECAY_DATE":null,"SITE":"AFETR","APOAPSIS":"540.530","NORAD_CAT_ID":"53846","REF_FRAME":"TEME","SEMIMAJOR_AXIS":"6917.874","TIME_SYSTEM":"UTC","MEAN_ANOMALY":"256.9112","CLASSIFICATION_TYPE":"U","ELEMENT_SET_NO":"999","RCS_SIZE":"LARGE","PERIAPSIS":"538.947","TLE_LINE1":"1 53846U 22114AE  23031.84798054  .00002822  00000-0  19533-3 0  9998","TLE_LINE2":"2 53846  53.2172 339.4556 0001144 103.2008 256.9112 15.08842191 21959","REV_AT_EPOCH":"2195","MEAN_ELEMENT_THEORY":"SGP4","GP_ID":"224129118","FILE":"3766747","EPOCH":"2023-01-31T20:21:05.518656","MEAN_MOTION":"15.08842191","MEAN_MOTION_DDOT":"0.0000000000000","BSTAR":"0.00019533000000","OBJECT_NAME":"STARLINK-4746","MEAN_MOTION_DOT":"0.00002822","PERIOD":"95.437","EPHEMERIS_TYPE":"0"},{"GP_ID":"224098498","MEAN_ELEMENT_THEORY":"SGP4","EPOCH":"2023-01-31T06:18:31.311360","FILE":"3766475","RCS_SIZE":"LARGE","ELEMENT_SET_NO":"999","CLASSIFICATION_TYPE":"U","REV_AT_EPOCH":"2186","TLE_LINE2":"2 53847  53.2194 342.1958 0001190  99.6402 260.4724 15.08856619 21867","TLE_LINE1":"1 53847U 22114AF  23031.26286240  .00000943  00000-0  77318-4 0  9992","PERIAPSIS":"538.871","OBJECT_NAME":"STARLINK-4777","BSTAR":"0.00007731800000","EPHEMERIS_TYPE":"0","PERIOD":"95.437","MEAN_MOTION_DOT":"0.00000943","MEAN_MOTION_DDOT":"0.0000000000000","MEAN_MOTION":"15.08856619","RA_OF_ASC_NODE":"342.1958","COUNTRY_CODE":"US","ARG_OF_PERICENTER":"99.6402","ECCENTRICITY":"0.00011900","INCLINATION":"53.2194","OBJECT_TYPE":"PAYLOAD","LAUNCH_DATE":"2022-09-19","OBJECT_ID":"2022-114AF","CENTER_NAME":"EARTH","SEMIMAJOR_AXIS":"6917.830","REF_FRAME":"TEME","NORAD_CAT_ID":"53847","MEAN_ANOMALY":"260.4724","TIME_SYSTEM":"UTC","SITE":"AFETR","DECAY_DATE":null,"APOAPSIS":"540.518"},{"EPOCH":"2023-01-31T20:10:28.526016","FILE":"3766747","GP_ID":"224130120","MEAN_ELEMENT_THEORY":"SGP4","REV_AT_EPOCH":"2195","TLE_LINE2":"2 53848  53.2194 339.4089 0001164 108.8426 251.2692 15.08841763 21958","TLE_LINE1":"1 53848U 22114AG  23031.84060794  .00001363  00000-0  10368-3 0  9999","PERIAPSIS":"538.935","RCS_SIZE":"LARGE","ELEMENT_SET_NO":"999","CLASSIFICATION_TYPE":"U","EPHEMERIS_TYPE":"0","PERIOD":"95.437","MEAN_MOTION_DOT":"0.00001363","OBJECT_NAME":"STARLINK-4780","BSTAR":"0.00010368000000","MEAN_MOTION_DDOT":"0.0000000000000","MEAN_MOTION":"15.08841763","ECCENTRICITY":"0.00011640","INCLINATION":"53.2194","RA_OF_ASC_NODE":"339.4089","COUNTRY_CODE":"US","ARG_OF_PERICENTER":"108.8426","LAUNCH_DATE":"2022-09-19","OBJECT_ID":"2022-114AG","CENTER_NAME":"EARTH","OBJECT_TYPE":"PAYLOAD","MEAN_ANOMALY":"251.2692","TIME_SYSTEM":"UTC","SEMIMAJOR_AXIS":"6917.875","NORAD_CAT_ID":"53848","REF_FRAME":"TEME","APOAPSIS":"540.545","SITE":"AFETR","DECAY_DATE":null},{"REF_FRAME":"TEME","NORAD_CAT_ID":"53849","SEMIMAJOR_AXIS":"6917.867","TIME_SYSTEM":"UTC","MEAN_ANOMALY":"273.2426","DECAY_DATE":null,"SITE":"AFETR","APOAPSIS":"540.513","COUNTRY_CODE":"US","ARG_OF_PERICENTER":"86.8695","RA_OF_ASC_NODE":"339.4726","ECCENTRICITY":"0.00011300","INCLINATION":"53.2199","OBJECT_TYPE":"PAYLOAD","CENTER_NAME":"EARTH","LAUNCH_DATE":"2022-09-19","OBJECT_ID":"2022-114AH","OBJECT_NAME":"STARLINK-4770","BSTAR":"0.00010728000000","MEAN_MOTION_DOT":"0.00001420","EPHEMERIS_TYPE":"0","PERIOD":"95.437","MEAN_MOTION_DDOT":"0.0000000000000","MEAN_MOTION":"15.08844495","MEAN_ELEMENT_THEORY":"SGP4","GP_ID":"224128868","FILE":"3766747","EPOCH":"2023-01-31T20:26:23.648640","CLASSIFICATION_TYPE":"U","RCS_SIZE":"LARGE","ELEMENT_SET_NO":"999","TLE_LINE1":"1 53849U 22114AH  23031.85166260  .00001420  00000-0  10728-3 0  9990","PERIAPSIS":"538.950","REV_AT_EPOCH":"2195","TLE_LINE2":"2 53849  53.2199 339.4726 0001130  86.8695 273.2426 15.08844495 21952"},{"MEAN_MOTION":"15.08836484","MEAN_MOTION_DDOT":"0.0000000000000","MEAN_MOTION_DOT":"0.00000660","PERIOD":"95.438","EPHEMERIS_TYPE":"0","BSTAR":"0.00005952300000","OBJECT_NAME":"STARLINK-4767","PERIAPSIS":"538.915","TLE_LINE1":"1 53850U 22114AJ  23031.89579749  .00000660  00000-0  59523-4 0  9998","TLE_LINE2":"2 53850  53.2206 339.0433 0001216 110.4344 249.6779 15.08836484 21962","REV_AT_EPOCH":"2196","CLASSIFICATION_TYPE":"U","ELEMENT_SET_NO":"999","RCS_SIZE":"LARGE","FILE":"3766747","EPOCH":"2023-01-31T21:29:56.903136","MEAN_ELEMENT_THEORY":"SGP4","GP_ID":"224128619","APOAPSIS":"540.597","DECAY_DATE":null,"SITE":"AFETR","TIME_SYSTEM":"UTC","MEAN_ANOMALY":"249.6779","NORAD_CAT_ID":"53850","REF_FRAME":"TEME","SEMIMAJOR_AXIS":"6917.891","CENTER_NAME":"EARTH","OBJECT_ID":"2022-114AJ","LAUNCH_DATE":"2022-09-19","OBJECT_TYPE":"PAYLOAD","INCLINATION":"53.2206","ECCENTRICITY":"0.00012160","ARG_OF_PERICENTER":"110.4344","COUNTRY_CODE":"US","RA_OF_ASC_NODE":"339.0433"},{"FILE":"3766747","EPOCH":"2023-01-31T20:15:47.172672","MEAN_ELEMENT_THEORY":"SGP4","GP_ID":"224129870","PERIAPSIS":"539.094","TLE_LINE1":"1 53851U 22114AK  23031.84429598  .00000802  00000-0  68483-4 0  9993","TLE_LINE2":"2 53851  53.2204 339.4323 0000943  80.4448 279.6651 15.08839825 21953","REV_AT_EPOCH":"2195","CLASSIFICATION_TYPE":"U","ELEMENT_SET_NO":"999","RCS_SIZE":"LARGE","MEAN_MOTION_DOT":"0.00000802","PERIOD":"95.438","EPHEMERIS_TYPE":"0","BSTAR":"0.00006848300000","OBJECT_NAME":"STARLINK-4755","MEAN_MOTION":"15.08839825","MEAN_MOTION_DDOT":"0.0000000000000","INCLINATION":"53.2204","ECCENTRICITY":"0.00009430","ARG_OF_PERICENTER":"80.4448","COUNTRY_CODE":"US","RA_OF_ASC_NODE":"339.4323","CENTER_NAME":"EARTH","OBJECT_ID":"2022-114AK","LAUNCH_DATE":"2022-09-19","OBJECT_TYPE":"PAYLOAD","TIME_SYSTEM":"UTC","MEAN_ANOMALY":"279.6651","REF_FRAME":"TEME","NORAD_CAT_ID":"53851","SEMIMAJOR_AXIS":"6917.881","APOAPSIS":"540.398","DECAY_DATE":null,"SITE":"AFETR"},{"BSTAR":"0.00022339000000","OBJECT_NAME":"STARLINK-4797","MEAN_MOTION_DOT":"0.00003270","PERIOD":"95.437","EPHEMERIS_TYPE":"0","MEAN_MOTION":"15.08846213","MEAN_MOTION_DDOT":"0.0000000000000","MEAN_ELEMENT_THEORY":"SGP4","GP_ID":"224129621","FILE":"3766747","EPOCH":"2023-01-31T21:02:55.897440","CLASSIFICATION_TYPE":"U","ELEMENT_SET_NO":"999","RCS_SIZE":"LARGE","PERIAPSIS":"538.838","TLE_LINE1":"1 53852U 22114AL  23031.87703585  .00003270  00000-0  22339-3 0  9999","TLE_LINE2":"2 53852  53.2187 334.6415 0001284  88.3408 271.7731 15.08846213 22025","REV_AT_EPOCH":"2202","REF_FRAME":"TEME","NORAD_CAT_ID":"53852","SEMIMAJOR_AXIS":"6917.861","TIME_SYSTEM":"UTC","MEAN_ANOMALY":"271.7731","DECAY_DATE":null,"SITE":"AFETR","APOAPSIS":"540.615","ARG_OF_PERICENTER":"88.3408","COUNTRY_CODE":"US","RA_OF_ASC_NODE":"334.6415","INCLINATION":"53.2187","ECCENTRICITY":"0.00012840","OBJECT_TYPE":"PAYLOAD","CENTER_NAME":"EARTH","OBJECT_ID":"2022-114AL","LAUNCH_DATE":"2022-09-19"},{"REV_AT_EPOCH":"2186","TLE_LINE2":"2 53853  53.2174 342.0648 0001148  89.6631 270.4493 15.08841837 21863","TLE_LINE1":"1 53853U 22114AM  23031.24076820  .00004016  00000-0  27026-3 0  9993","PERIAPSIS":"538.946","RCS_SIZE":"LARGE","ELEMENT_SET_NO":"999","CLASSIFICATION_TYPE":"U","EPOCH":"2023-01-31T05:46:42.372480","FILE":"3766475","GP_ID":"224098009","MEAN_ELEMENT_THEORY":"SGP4","MEAN_MOTION_DDOT":"0.0000000000000","MEAN_MOTION":"15.08841837","EPHEMERIS_TYPE":"0","PERIOD":"95.437","MEAN_MOTION_DOT":"0.00004016","OBJECT_NAME":"STARLINK-4794","BSTAR":"0.00027026000000","LAUNCH_DATE":"2022-09-19","OBJECT_ID":"2022-114AM","CENTER_NAME":"EARTH","OBJECT_TYPE":"PAYLOAD","ECCENTRICITY":"0.00011480","INCLINATION":"53.2174","RA_OF_ASC_NODE":"342.0648","COUNTRY_CODE":"US","ARG_OF_PERICENTER":"89.6631","APOAPSIS":"540.534","SITE":"AFETR","DECAY_DATE":null,"MEAN_ANOMALY":"270.4493","TIME_SYSTEM":"UTC","SEMIMAJOR_AXIS":"6917.875","REF_FRAME":"TEME","NORAD_CAT_ID":"53853"},{"BSTAR":"0.00016333000000","OBJECT_NAME":"STARLINK-4800","MEAN_MOTION_DOT":"0.00002313","PERIOD":"95.437","EPHEMERIS_TYPE":"0","MEAN_MOTION":"15.08842819","MEAN_MOTION_DDOT":"0.0000000000000","MEAN_ELEMENT_THEORY":"SGP4","GP_ID":"224129119","FILE":"3766747","EPOCH":"2023-01-31T19:40:05.813472","CLASSIFICATION_TYPE":"U","ELEMENT_SET_NO":"999","RCS_SIZE":"LARGE","PERIAPSIS":"538.794","TLE_LINE1":"1 53854U 22114AN  23031.81951173  .00002313  00000-0  16333-3 0  9997","TLE_LINE2":"2 53854  53.2167 330.0026 0001363  99.5685 260.5461 15.08842819 22082","REV_AT_EPOCH":"2208","REF_FRAME":"TEME","NORAD_CAT_ID":"53854","SEMIMAJOR_AXIS":"6917.872","TIME_SYSTEM":"UTC","MEAN_ANOMALY":"260.5461","DECAY_DATE":null,"SITE":"AFETR","APOAPSIS":"540.680","ARG_OF_PERICENTER":"99.5685","COUNTRY_CODE":"US","RA_OF_ASC_NODE":"330.0026","INCLINATION":"53.2167","ECCENTRICITY":"0.00013630","OBJECT_TYPE":"PAYLOAD","CENTER_NAME":"EARTH","OBJECT_ID":"2022-114AN","LAUNCH_DATE":"2022-09-19"},{"SEMIMAJOR_AXIS":"6917.871","NORAD_CAT_ID":"53855","REF_FRAME":"TEME","MEAN_ANOMALY":"273.8501","TIME_SYSTEM":"UTC","SITE":"AFETR","DECAY_DATE":null,"APOAPSIS":"540.605","RA_OF_ASC_NODE":"339.0681","ARG_OF_PERICENTER":"86.2635","COUNTRY_CODE":"US","INCLINATION":"53.2182","ECCENTRICITY":"0.00012570","OBJECT_TYPE":"PAYLOAD","OBJECT_ID":"2022-114AP","LAUNCH_DATE":"2022-09-19","CENTER_NAME":"EARTH","BSTAR":"0.00023175000000","OBJECT_NAME":"STARLINK-4703","PERIOD":"95.437","EPHEMERIS_TYPE":"0","MEAN_MOTION_DOT":"0.00003403","MEAN_MOTION":"15.08843109","MEAN_MOTION_DDOT":"0.0000000000000","GP_ID":"224129371","MEAN_ELEMENT_THEORY":"SGP4","EPOCH":"2023-01-31T21:35:15.162720","FILE":"3766747","ELEMENT_SET_NO":"999","RCS_SIZE":"LARGE","CLASSIFICATION_TYPE":"U","TLE_LINE2":"2 53855  53.2182 339.0681 0001257  86.2635 273.8501 15.08843109 21967","REV_AT_EPOCH":"2196","PERIAPSIS":"538.866","TLE_LINE1":"1 53855U 22114AP  23031.89948105  .00003403  00000-0  23175-3 0  9990"}];
